[{"OBJECT_NAME":"ICEYE-X4","OBJECT_ID":"2019-038D","EPOCH":"2026-03-09T23:53:58.416000","MEAN_MOTION":15.26985132,"ECCENTRICITY":0.00122769,"INCLINATION":97.8888,"RA_OF_ASC_NODE":96.1923,"ARG_OF_PERICENTER":293.9914,"MEAN_ANOMALY":66.0038,"EPHEMERIS_TYPE":0,"CLASSIFICATION_TYPE":"U","NORAD_CAT_ID":44390,"ELEMENT_SET_NO":999,"REV_AT_EPOCH":36665,"BSTAR":0.00049915294,"MEAN_MOTION_DOT":0.00013179,"MEAN_MOTION_DDOT":0},{"OBJECT_NAME":"STARLINK-31808","OBJECT_ID":"2024-090X","EPOCH":"2026-03-09T08:30:38.003328","MEAN_MOTION":15.27585789,"ECCENTRICITY":2.702e-5,"INCLINATION":42.9978,"RA_OF_ASC_NODE":184.9759,"ARG_OF_PERICENTER":283.0419,"MEAN_ANOMALY":77.0403,"EPHEMERIS_TYPE":0,"CLASSIFICATION_TYPE":"U","NORAD_CAT_ID":59751,"ELEMENT_SET_NO":999,"REV_AT_EPOCH":10338,"BSTAR":-7.4868097e-5,"MEAN_MOTION_DOT":-2.321e-5,"MEAN_MOTION_DDOT":0}]
